#dP2019 11  5  0  0  0.00000000      97 __u+U IGS08 FIT  IAC
## 2078 172800.00000000   900.00000000 58792 0.0000000000000
+  112   C01C02C03C04C05C06C07C08C09C10C11C12C13C14C16C19C20
+        C21C22C23C24C25C26C27C28C29C30C32C33C34C35C36C37E01
+        E02E03E04E05E07E08E09E12E13E14E15E18E19E21E24E26E27
+        E30E31E33E36G01G02G03G04G05G06G07G08G09G10G11G12G13
+        G14G15G16G17G18G19G20G21G22G23G24G25G26G27G28G30G31
+        G32J01J02J03J07R01R02R03R05R07R08R09R11R12R13R14R15
+        R16R17R18R19R20R21R22R23R24R26  0  0  0  0  0  0  0
++        13 13 13  0 13  8  8  8  8  8  7  7  8  7  8  7  7
++         7  7  8  7  7  7  7  7  7  7  8  8  7  8  8  8  3
++         3  3  4  4  4  4  4  4  4  4  3  4  4  4  4  4  4
++         4  4  4  4  3  3  3  3  3  3  3  3  3  3  3  3  3
++         3  3  3  3  3  3  3  3  3  3  3  3  3  3  3  3  3
++         3  8  9  8 13  6  5  5  5  5  5  5  5  5  6  5  5
++         6  5  5  6  7  5  5  5  6  7  0  0  0  0  0  0  0
%c M  cc GPS ccc cccc cccc cccc cccc ccccc ccccc ccccc ccccc
%c cc cc ccc ccc cccc cccc cccc cccc ccccc ccccc ccccc ccccc
%f  1.2500000  1.025000000  0.00000000000  0.000000000000000
%f  0.0000000  0.000000000  0.00000000000  0.000000000000000
%i    0    0    0    0      0      0      0      0         0
%i    0    0    0    0      0      0      0      0         0
/* INFORMATION & ANALYSIS CENTER (IAC)            FINAL DATA
/* S/V CLOCKS ARE ALIGNED TO GNSS TIME                      
/* G:C1WC2W R:C1PC2P E:C1XC5X C:C2IC6I J:C1CC2S             
/* PCV:IGS14_2076 OL/AL:FES2004  NONE     YN ORB:CoN CLK:CoN
*  2019 11 05 11  0  0.00000000
PC01 -32300.073335  27128.558967   -318.487528    101.629309
PC02   4387.094649  41910.375825   -513.254962    758.591034
PC03 -14756.669986  39492.493677   -787.653029    480.362430
PC04      0.000000      0.000000      0.000000 999999.999999
PC05  21961.266888  35981.694670   -427.897654    -40.823175
PC06 -24033.798668  27490.204151  21077.026632    331.600595
PC07 -13316.829237  37203.151926  15553.851146   -242.437790
PC08  -9725.601286  19561.895832 -35967.053219    -27.763555
PC09  -7572.732265  27213.143475  31423.362519     93.063885
PC10  -2665.457667  42255.287347   2234.688122   -336.891394
PC11 -27716.439385   -338.953436   3595.328308     15.677122
PC12  -7596.329062 -14401.239173  22747.051490    302.746761
PC13   5487.585804  27976.758433 -30907.745797     90.166262
PC14 -17706.379225   2650.830877 -21397.472480    107.063723
PC16 -21130.798843  27899.892175  23408.194745   -909.507932
PC19  18505.393255 -12457.227124  16774.415609    236.946164
PC20  14272.354335   7162.338156  22893.593227   -254.135576
PC21  -1399.567707 -23089.175852 -15588.956440    204.099076
PC22  12070.374048 -25133.135610    741.091958   -320.250703
PC23  -4342.487530  18852.169373  20123.084842   -888.248102
PC24 -20144.365615 -16259.300814  10455.068807   -880.220632
PC25 -17189.123281   2577.199061  21836.650823   -403.749595
PC26 -12150.164244 -24339.078772  -6297.356769    449.108706
PC27   7325.533783  15005.329860 -22372.730015    219.577949
PC28 -13890.262068  14449.419154 -19418.288788    210.751965
PC29  26640.070109  -6495.174808   5169.119783    141.863254
PC30  24287.145992   6005.243320 -12374.384920    219.405650
PC32   1572.827992  23099.719090  15587.591725   -876.526902
PC33 -18470.594723  12498.130834 -16786.348728   -537.798883
PC34 -24435.919838  -5916.428809  12090.940536   -209.617108
PC35  13498.085514 -14938.100983  19338.084506   -520.182792
PC36  17307.475380  -1990.161524 -21769.657466   -918.186887
PC37  11155.190801  24644.067913   6853.432393   -706.728501
PE01  15704.745784  17292.589532 -18170.678409   -725.415684
PE02 -15734.277547 -17222.849109  18234.208306     89.783827
PE03 -17604.353325  -6268.410185 -22965.245442   -229.642392
PE04  24965.220361 -11347.336384  11138.932058   -399.598663
PE05    166.704534 -20402.318302 -21448.543818   -433.931446
PE07 -17736.461626  22521.728081   7397.545266   -294.828003
PE08 -24845.818561  11718.279071 -11047.378851   6267.521193
PE09  17544.152817 -22623.722040  -7488.365927   6262.695472
PE12  26721.920252   -111.932527  12742.084229   6115.032219
PE13 -11345.095100  12961.514292 -24066.512179    395.030377
PE14  -8757.278866 -12385.467374  17825.476067   -783.016924
PE15 -26586.160230    402.249345 -13008.082308    888.907208
PE18  10041.898213  18282.824057 -25009.281657   -877.760256
PE19  15975.466454   8002.891045  23596.657187     -3.058708
PE21   6509.603604  28857.482429  -1051.043458   -564.201885
PE24   6708.699818 -23548.761255 -16647.083324   5783.199779
PE26  10594.477567  18151.726653 -20832.372883   3912.489242
PE27  -6612.360800  23501.060675  16747.251012    352.152467
PE30 -15874.765051   4287.629156  24612.658495   4409.706643
PE31  15792.602621  -4376.772062 -24634.617932   -470.313998
PE33  26264.703864  12403.783598  -5679.903726   -471.727411
PE36 -10587.936501 -17947.097500  21031.472027    640.722821
PG01  22338.335922  14377.379861   2788.173567   -186.949190
PG02  -8728.720039 -19451.740797  16537.851779   -340.527330
PG03  13567.066478   9116.695632  20892.651642    -32.122845
PG04  24499.605073 -10135.746844   -504.036744     -5.913291
PG05  -4200.644953 -24655.696206  -8773.454830     -3.093003
PG06   5489.075514 -14214.235266  21796.969247   -113.850784
PG07  21101.799342   1763.914245 -16037.602125   -142.224963
PG08  13514.531223   9520.044016 -20800.254720    -12.326170
PG09  24983.628029  -6362.187068   6348.503879    -75.424563
PG10 -11476.504341  19758.217776 -13285.872442   -122.487002
PG11  24144.374964   9155.709366  -5992.449482   -457.177382
PG12 -10320.257659 -14978.894786  19197.128115    186.722950
PG13  -3747.966626 -14646.213124 -21956.546090    -34.686563
PG14 -10159.624265  16856.743942  18074.668700    -52.224090
PG15 -15529.612845  -8602.787508 -20147.911289   -274.846063
PG16   -148.187490  25343.173198  -7331.414270    -90.138673
PG17  19302.639387 -14872.449824  10888.490521    157.314408
PG18  19045.008743  17728.787333  -6077.443396     98.038137
PG19  14230.347109 -15619.044452  15810.608307   -243.990970
PG20 -14458.202962  10590.598286 -19647.721020    527.390295
PG21 -18739.836103   2947.901967 -17719.133509    -90.982611
PG22  12193.149858  16587.742487  17051.095220   -769.477448
PG23  22028.473923   2070.709992  15315.239551   -157.349931
PG24 -22449.581611 -14550.116983    206.991687     -4.489618
PG25 -15099.088989   1272.203227  21579.736719    -16.750168
PG26  -4552.690207  25844.999454   3311.260216     77.419161
PG27    808.894817  15512.193101 -21612.706928   -110.186005
PG28  12295.535713 -20027.057020 -11881.124213    756.352869
PG30  13662.435797  -8734.250529 -21030.296724    -77.088528
PG31  -4110.990793  15533.106796  21053.460528     -1.117807
PG32 -18432.402438  16083.374796  10242.356165    115.011559
PJ01 -24819.176238  32323.749277  -6259.651174   -334.113003
PJ02 -23760.485522  24566.863504  29456.298899     -7.131694
PJ03 -35229.033998  19199.989669  -8297.246525     -5.621480
PJ07 -25386.707969  33670.694931     17.257747     -0.572950
PR01  -6573.302827  -9763.429609 -22634.979738     52.223226
PR02 -16651.133412   9652.401786 -16677.470167    396.288545
PR03 -15026.764824  20569.223794   -645.713492      4.314563
PR05   8018.122552   7416.991851  23052.715054     38.821744
PR07  14902.623909 -20729.089530    189.110588    -28.992190
PR08   4955.027379 -19640.464145 -15468.318351     14.630086
PR09  11804.571820   -709.222719 -22589.700070     99.463460
PR11  -7591.681291 -23567.446182  -6013.867949     20.980080
PR12 -14014.533727 -18491.849751  10656.836077     76.496868
PR13 -12562.909071  -2137.123022  22085.815143    -30.567735
PR14  -3829.661274  15009.796346  20288.110711     44.740493
PR15   7059.992268  23512.565686   6951.516010    104.618436
PR16  14426.466711  17927.473947 -10891.255724      1.013018
PR17 -15329.839700   7223.926815 -19073.342071    273.764086
PR18   2722.541305  10708.968736 -22978.572615     13.410261
PR19  18811.278602   8965.999594 -14700.031527    -62.416474
PR20  25160.845677   1328.880612   4104.236283   -395.329120
PR21  14545.895258  -7435.480623  19579.371818    -83.274493
PR22  -5813.870910 -10728.270458  22387.429697   -183.413403
PR23 -22721.424221  -6686.160855   9477.186136    264.830810
PR24 -24730.822718    191.830366  -6259.423662   -186.435318
PR26  25367.112914   2465.723576    428.786719      5.183143
EOF
